{
  "type": "FeatureCollection",
  "features": [
    {
      "type": "Feature",
      "properties": {
        "norad_id": 30921,
        "name": "FENGYUN 1C DEB",
        "group": "fengyun-1c-debris",
        "lat": 33.88741606348029,
        "lon": -109.81818908191165,
        "alt_km": 778.1027669525047,
        "timestamp": "2025-12-02T21:34:01.550578+00:00",
        "meta_object_name": "FENGYUN 1C DEB",
        "meta_object_id": "1999-025AZK",
        "meta_epoch": "2025-12-02T04:24:03.790080",
        "meta_mean_motion": 14.32570692,
        "meta_eccentricity": 0.00175994,
        "meta_inclination": 98.844,
        "meta_ra_of_asc_node": 63.4498,
        "meta_arg_of_pericenter": 70.4966,
        "meta_mean_anomaly": 348.211,
        "meta_ephemeris_type": 0,
        "meta_classification_type": "U",
        "meta_norad_cat_id": 30921,
        "meta_element_set_no": 999,
        "meta_rev_at_epoch": 96673,
        "meta_bstar": 0.0020621203,
        "meta_mean_motion_dot": 5.564e-05,
        "meta_mean_motion_ddot": 0,
        "tle_line1": "1 30921U 99025AZK 25336.18337720  .00005564  00000+0  20621-2 0  9992",
        "tle_line2": "2 30921  98.8440  63.4498 0017599  70.4966 348.2110 14.32570692966736"
      },
      "geometry": {
        "type": "Point",
        "coordinates": [
          -109.81818908191165,
          33.88741606348029
        ]
      }
    },
    {
      "type": "Feature",
      "properties": {
        "norad_id": 30922,
        "name": "FENGYUN 1C DEB",
        "group": "fengyun-1c-debris",
        "lat": -81.34489232192786,
        "lon": 85.59077837099865,
        "alt_km": 852.0022438540427,
        "timestamp": "2025-12-02T21:34:01.550589+00:00",
        "meta_object_name": "FENGYUN 1C DEB",
        "meta_object_id": "1999-025AZL",
        "meta_epoch": "2025-12-02T12:32:56.439744",
        "meta_mean_motion": 14.17417772,
        "meta_eccentricity": 0.001485,
        "meta_inclination": 98.6411,
        "meta_ra_of_asc_node": 352.6517,
        "meta_arg_of_pericenter": 81.4914,
        "meta_mean_anomaly": 71.8675,
        "meta_ephemeris_type": 0,
        "meta_classification_type": "U",
        "meta_norad_cat_id": 30922,
        "meta_element_set_no": 999,
        "meta_rev_at_epoch": 96419,
        "meta_bstar": 0.0007978,
        "meta_mean_motion_dot": 1.575e-05,
        "meta_mean_motion_ddot": 0,
        "tle_line1": "1 30922U 99025AZL 25336.52287546  .00001575  00000+0  79780-3 0  9990",
        "tle_line2": "2 30922  98.6411 352.6517 0014850  81.4914  71.8675 14.17417772964195"
      },
      "geometry": {
        "type": "Point",
        "coordinates": [
          85.59077837099865,
          -81.34489232192786
        ]
      }
    },
    {
      "type": "Feature",
      "properties": {
        "norad_id": 30925,
        "name": "FENGYUN 1C DEB",
        "group": "fengyun-1c-debris",
        "lat": -30.7929556033242,
        "lon": -77.0818711503438,
        "alt_km": 741.5652900323894,
        "timestamp": "2025-12-02T21:34:01.550600+00:00",
        "meta_object_name": "FENGYUN 1C DEB",
        "meta_object_id": "1999-025AZP",
        "meta_epoch": "2025-12-02T07:33:36.546048",
        "meta_mean_motion": 14.42841359,
        "meta_eccentricity": 0.0032682,
        "meta_inclination": 98.8823,
        "meta_ra_of_asc_node": 107.6578,
        "meta_arg_of_pericenter": 267.6181,
        "meta_mean_anomaly": 154.0428,
        "meta_ephemeris_type": 0,
        "meta_classification_type": "U",
        "meta_norad_cat_id": 30925,
        "meta_element_set_no": 999,
        "meta_rev_at_epoch": 96922,
        "meta_bstar": 0.0029562,
        "meta_mean_motion_dot": 9.896e-05,
        "meta_mean_motion_ddot": 0,
        "tle_line1": "1 30925U 99025AZP 25336.31500632  .00009896  00000+0  29562-2 0  9990",
        "tle_line2": "2 30925  98.8823 107.6578 0032682 267.6181 154.0428 14.42841359969228"
      },
      "geometry": {
        "type": "Point",
        "coordinates": [
          -77.0818711503438,
          -30.7929556033242
        ]
      }
    },
    {
      "type": "Feature",
      "properties": {
        "norad_id": 30926,
        "name": "FENGYUN 1C DEB",
        "group": "fengyun-1c-debris",
        "lat": 14.925283377827263,
        "lon": 98.9045099507306,
        "alt_km": 642.6700292980222,
        "timestamp": "2025-12-02T21:34:01.550610+00:00",
        "meta_object_name": "FENGYUN 1C DEB",
        "meta_object_id": "1999-025AZQ",
        "meta_epoch": "2025-12-01T19:02:32.350272",
        "meta_mean_motion": 14.89123668,
        "meta_eccentricity": 0.01669943,
        "meta_inclination": 98.8004,
        "meta_ra_of_asc_node": 275.3096,
        "meta_arg_of_pericenter": 56.7453,
        "meta_mean_anomaly": 304.9638,
        "meta_ephemeris_type": 0,
        "meta_classification_type": "U",
        "meta_norad_cat_id": 30926,
        "meta_element_set_no": 999,
        "meta_rev_at_epoch": 604,
        "meta_bstar": 0.00056587813,
        "meta_mean_motion_dot": 6.865e-05,
        "meta_mean_motion_ddot": 0,
        "tle_line1": "1 30926U 99025AZQ 25335.79342998  .00006865  00000+0  56588-3 0  9993",
        "tle_line2": "2 30926  98.8004 275.3096 0166994  56.7453 304.9638 14.89123668  6049"
      },
      "geometry": {
        "type": "Point",
        "coordinates": [
          98.9045099507306,
          14.925283377827263
        ]
      }
    },
    {
      "type": "Feature",
      "properties": {
        "norad_id": 30927,
        "name": "FENGYUN 1C DEB",
        "group": "fengyun-1c-debris",
        "lat": -39.21412668966537,
        "lon": 44.770422184455086,
        "alt_km": 848.819681336995,
        "timestamp": "2025-12-02T21:34:01.550620+00:00",
        "meta_object_name": "FENGYUN 1C DEB",
        "meta_object_id": "1999-025AZR",
        "meta_epoch": "2025-12-01T03:08:37.115232",
        "meta_mean_motion": 14.08879323,
        "meta_eccentricity": 0.00989644,
        "meta_inclination": 99.1831,
        "meta_ra_of_asc_node": 35.3851,
        "meta_arg_of_pericenter": 38.9072,
        "meta_mean_anomaly": 321.9165,
        "meta_ephemeris_type": 0,
        "meta_classification_type": "U",
        "meta_norad_cat_id": 30927,
        "meta_element_set_no": 999,
        "meta_rev_at_epoch": 95520,
        "meta_bstar": 0.0016313898,
        "meta_mean_motion_dot": 2.904e-05,
        "meta_mean_motion_ddot": 0,
        "tle_line1": "1 30927U 99025AZR 25335.13098513  .00002904  00000+0  16314-2 0  9995",
        "tle_line2": "2 30927  99.1831  35.3851 0098964  38.9072 321.9165 14.08879323955207"
      },
      "geometry": {
        "type": "Point",
        "coordinates": [
          44.770422184455086,
          -39.21412668966537
        ]
      }
    },
    {
      "type": "Feature",
      "properties": {
        "norad_id": 30928,
        "name": "FENGYUN 1C DEB",
        "group": "fengyun-1c-debris",
        "lat": 25.769486290699074,
        "lon": -108.03186668199136,
        "alt_km": 1206.5967419711897,
        "timestamp": "2025-12-02T21:34:01.550630+00:00",
        "meta_object_name": "FENGYUN 1C DEB",
        "meta_object_id": "1999-025AZS",
        "meta_epoch": "2025-12-02T04:48:04.904928",
        "meta_mean_motion": 13.22221332,
        "meta_eccentricity": 0.045112,
        "meta_inclination": 98.8836,
        "meta_ra_of_asc_node": 67.0421,
        "meta_arg_of_pericenter": 57.6478,
        "meta_mean_anomaly": 7.5056,
        "meta_ephemeris_type": 0,
        "meta_classification_type": "U",
        "meta_norad_cat_id": 30928,
        "meta_element_set_no": 999,
        "meta_rev_at_epoch": 90209,
        "meta_bstar": 0.00088279603,
        "meta_mean_motion_dot": 5.96e-06,
        "meta_mean_motion_ddot": 0,
        "tle_line1": "1 30928U 99025AZS 25336.20005677  .00000596  00000+0  88280-3 0  9991",
        "tle_line2": "2 30928  98.8836  67.0421 0451120  57.6478   7.5056 13.22221332902090"
      },
      "geometry": {
        "type": "Point",
        "coordinates": [
          -108.03186668199136,
          25.769486290699074
        ]
      }
    },
    {
      "type": "Feature",
      "properties": {
        "norad_id": 30930,
        "name": "FENGYUN 1C DEB",
        "group": "fengyun-1c-debris",
        "lat": 3.1294496597158536,
        "lon": -173.91790502299577,
        "alt_km": 710.4432390748207,
        "timestamp": "2025-12-02T21:34:01.550640+00:00",
        "meta_object_name": "FENGYUN 1C DEB",
        "meta_object_id": "1999-025AZU",
        "meta_epoch": "2025-12-02T07:40:45.179040",
        "meta_mean_motion": 14.37352769,
        "meta_eccentricity": 0.0109503,
        "meta_inclination": 98.2165,
        "meta_ra_of_asc_node": 5.0765,
        "meta_arg_of_pericenter": 137.3637,
        "meta_mean_anomaly": 286.006,
        "meta_ephemeris_type": 0,
        "meta_classification_type": "U",
        "meta_norad_cat_id": 30930,
        "meta_element_set_no": 999,
        "meta_rev_at_epoch": 98182,
        "meta_bstar": 0.00047615,
        "meta_mean_motion_dot": 1.481e-05,
        "meta_mean_motion_ddot": 0,
        "tle_line1": "1 30930U 99025AZU 25336.31996735  .00001481  00000+0  47615-3 0  9991",
        "tle_line2": "2 30930  98.2165   5.0765 0109503 137.3637 286.0060 14.37352769981826"
      },
      "geometry": {
        "type": "Point",
        "coordinates": [
          -173.91790502299577,
          3.1294496597158536
        ]
      }
    }
  ]
}